{
    "action": "model#osm",
    "data": {
        "name": "Seneca Rocks, WV Corrected (OSM)",
        "bounds": [
            -79.38355922698973,
            38.830046580030306,
            -79.37222957611084,
            38.83666569946354
        ],
        "classes": [
            {
                "name": "Structure",
                "color": "#f76f73",
                "tagmap": {
                    "building": ".*",
                    "amenity": "bar",
                    "amenity": "hospital",
                    "amenity": "pub",
                    "amenity": "restaurant",
                    "amenity": "school",
                    "amenity": "university",
                    "amenity": "animal_shelter",
                    "amenity": "arts_centre",
                    "amenity": "bank",
                    "amenity": "bar",
                    "amenity": "brothel",
                    "amenity": "cafe",
                    "amenity": "car_rental",
                    "amenity": "car_wash",
                    "amenity": "casino",
                    "amenity": "cinema",
                    "amenity": "clinic",
                    "amenity": "college",
                    "amenity": "community_centre",
                    "amenity": "courthouse",
                    "amenity": "crematorium",
                    "amenity": "crypt",
                    "amenity": "dentist",
                    "amenity": "dive_centre",
                    "amenity": "driving_school",
                    "amenity": "embassy",
                    "amenity": "fast_food",
                    "amenity": "ferry_terminal",
                    "amenity": "fire_station",
                    "amenity": "food_court",
                    "amenity": "fuel",
                    "amenity": "grave_yard",
                    "amenity": "gym",
                    "amenity": "hospital",
                    "amenity": "internet_cafe"
                }
            },
            {
                "name": "Water",
                "color": "#0000FF",
                "tagmap": {
                    "landuse": "reservoir",
                    "landuse": "pond",
                    "leisure": "swimming_area",
                    "leisure": "swimming_pool",
                    "natural": "bay",
                    "natural": "water",
                    "natural": "riverbank",
                    "natural": "coastline",
                    "amenity": "fountain",
                    "waterway": "river",
                    "waterway": "riverbank",
                    "waterway": "stream"
                }
            },
            {
                "name": "No Data",
                "color": "#62a092",
                "tagmap": {}
            },
            {
                "name": "Impervious Road",
                "color": "#0218a2",
                "tagmap": {
                    "highway": ".*",
                    "amenity": "parking",
                    "parking": "surface"
                }
            },
            {
                "name": "Emergent Wetlands",
                "color": "#008000",
                "tagmap": {
                    "natural": "mud",
                    "natural": "wetland"
                }
            },
            {
                "name": "Impervious Surface",
                "color": "#ffb703",
                "tagmap": {
                    "building": ".*",
                    "highway": ".*",
                    "amenity": "bar",
                    "amenity": "hospital",
                    "amenity": "pub",
                    "amenity": "restaurant",
                    "amenity": "school",
                    "amenity": "university",
                    "amenity": "animal_shelter",
                    "amenity": "arts_centre",
                    "amenity": "bank",
                    "amenity": "bar",
                    "amenity": "brothel",
                    "amenity": "cafe",
                    "amenity": "car_rental",
                    "amenity": "car_wash",
                    "amenity": "casino",
                    "amenity": "cinema",
                    "amenity": "clinic",
                    "amenity": "college",
                    "amenity": "community_centre",
                    "amenity": "courthouse",
                    "amenity": "crematorium",
                    "amenity": "crypt",
                    "amenity": "dentist",
                    "amenity": "dive_centre",
                    "amenity": "driving_school",
                    "amenity": "embassy",
                    "amenity": "fast_food",
                    "amenity": "ferry_terminal",
                    "amenity": "fire_station",
                    "amenity": "food_court",
                    "amenity": "fuel",
                    "amenity": "grave_yard",
                    "amenity": "gym",
                    "amenity": "hospital",
                    "amenity": "internet_cafe"
                }
            },
            {
                "name": "Tree Canopy",
                "color": "#80FF80",
                "tagmap": {
                    "natural": "tree",
                    "natural": "tree_row",
                    "natural": "wood",
                    "landuse": "forest"
                }
            },
            {
                "name": "Shrubland",
                "color": "#806060",
                "tagmap": {
                    "landuse": "scrub",
                    "natural": "fell",
                    "natural": "grassland",
                    "natural": "heath",
                    "natural": "scrub"
                }
            },
            {
                "name": "Barren",
                "color": "#027fdc",
                "tagmap": {
                    "natural": "beach",
                    "natural": "sand",
                    "natural": "shingle",
                    "natural": "bare_rock",
                    "natural": "scree",
                    "natural": "glacier"
                }
            },
            {
                "name": "Low Vegetation",
                "color": "#07c4c5",
                "tagmap": {}
            },
            {
                "name": "Tundra",
                "color": "#ffffff",
                "tagmap": {}
            },
            {
                "name": "Mountain",
                "color": "#a4afbf",
                "tagmap": {}
            }
        ]
    }
}
